#aV2011 11  2  0  0   .00000000      96 DD+AD WGS84 FIT  NGA
## 1660 259200.00000000   900.00000000 55867  .0000000000000
+   31     1  2  3  4  5  6  7  8  9 10 11 12 13 14 15 16 17
+         18 19 20 21 22 23 25 26 27 28 29 30 31 32  0  0  0
+          0  0  0  0  0  0  0  0  0  0  0  0  0  0  0  0  0
+          0  0  0  0  0  0  0  0  0  0  0  0  0  0  0  0  0
+          0  0  0  0  0  0  0  0  0  0  0  0  0  0  0  0  0
++         0  0  0  0  0  0  0  0  0  0  0  0  0  0  0  0  0
++         0  0  0  0  0  0  0  0  0  0  0  0  0  0  0  0  0
++         0  0  0  0  0  0  0  0  0  0  0  0  0  0  0  0  0
++         0  0  0  0  0  0  0  0  0  0  0  0  0  0  0  0  0
++         0  0  0  0  0  0  0  0  0  0  0  0  0  0  0  0  0
%c cc cc ccc ccc cccc cccc cccc cccc ccccc ccccc ccccc ccccc
%c cc cc ccc ccc cccc cccc cccc cccc ccccc ccccc ccccc ccccc
%f  0.0000000  0.000000000  0.00000000000  0.000000000000000
%f  0.0000000  0.000000000  0.00000000000  0.000000000000000
%i    0    0    0    0      0      0      0      0         0
%i    0    0    0    0      0      0      0      0         0
/*      NGA, ST. LOUIS,MO.                                  
/*   EPHEMERIS COMPUTED FROM  3 DAYS OF DATA                
/* CCCCCCCCCCCCCCCCCCCCCCCCCCCCCCCCCCCCCCCCCCCCCCCCCCCCCCCCC
/* CCCCCCCCCCCCCCCCCCCCCCCCCCCCCCCCCCCCCCCCCCCCCCCCCCCCCCCCC
*  2011 11  2 17 45   .00000000                                                 
P  1  19507.505248   7929.648565  16174.789362     69.841769                    
V  1  10356.348364  17869.905122 -21226.833943       .240247                    
P  2 -13654.537656 -22882.003585   3220.528535    363.726009                    
V  2   4777.597393   1419.535523  30592.543990       .018237                    
P  3  12010.742118  12931.945744 -20373.262185    789.670454                    
V  3 -24120.916471   6363.033537 -10120.419281       .051510                    
P  4  -2241.540448 -21811.751555  14517.370592    278.973093                    
V  4  13257.737507  13956.811924  22989.434765       .112784                    
P  5  -6555.564802 -17557.952011 -18789.518883   -239.990716                    
V  5  11516.109400 -20992.947505  15731.952780      -.050171                    
P  6   7119.278209  14552.251794 -20945.694759    -38.470259                    
V  6 -26613.612564   4368.021830  -5718.794026       .063234                    
P  7  13594.626755  -6392.919030 -21899.578648     35.129340                    
V  7  15556.864731  23024.722646   2697.115607       .021000                    
P  8   6559.772946 -15246.030646 -20527.173666       .028898                    
V  8  13822.495410  22342.791998 -12702.054784       .000043                    
P  9 -19372.989009 -12057.231435  13021.738830    115.789435                    
V  9  -8690.468242 -15202.355303 -25949.682014       .024626                    
P 10   8377.933732 -24582.444098  -4679.878701    -17.942527                    
V 10   5639.205299  -3615.849991  30963.704634      -.010362                    
P 11  22964.522703  10884.303925   7914.009215   -200.361774                    
V 11   5202.011480  10229.356973 -27554.830658      -.034333                    
P 12 -15860.952937   -276.375497  21279.275251     32.300122                    
V 12  11317.010958 -24509.172147   8285.969794       .023283                    
P 13  25062.181165  -4975.742865  -7545.220223    243.497843                    
V 13   9350.278511   1748.737227  30368.220771      -.019388                    
P 14  -9529.000058  14027.008820  20581.358109    179.514740                    
V 14 -25730.143961   -194.831707 -12023.923512       .016234                    
P 15 -23812.919818  -5227.361182 -10753.268479   -100.554018                    
V 15  13268.142903  -4096.623128 -27181.493750       .011855                    
P 16   5755.969452  17192.617607 -19286.100146   -206.756131                    
V 16 -12351.526077  21283.386579  15560.051920      -.020491                    
P 17  10137.697437 -14460.124809  19910.579362    167.691956                    
V 17  25065.130892   -107.414234 -13170.551282      -.018315                    
P 18 -16712.833408  17655.533782  -9911.438582    165.161029                    
V 18   2462.317166 -13525.849386 -27680.726322       .018676                    
P 19  21859.486720   8842.761144 -12609.461278   -200.749530                    
V 19 -15827.671028   2082.011927 -25682.915871      -.039925                    
P 20  16841.633159  -1115.040440  20343.897257     55.407172                    
V 20  -9117.866860  24687.065029   8906.549375       .006520                    
P 21 -11724.125225  10435.618662 -20952.926871   -181.927777                    
V 21 -16227.461024 -22574.671201  -2714.224412      -.024378                    
P 22  -9604.460209  24552.855432   2863.282997    143.614376                    
V 22  -4977.575271   1412.803024 -30832.296513      -.003602                    
P 23  26632.396454   -132.934986   2623.590221    262.723031                    
V 23  -3076.103233   2675.105600  31323.748796      -.032145                    
P 25 -17540.578932  11474.702432  16268.302802     26.152279                    
V 25   6912.322010 -19600.263999  21271.298447       .015166                    
P 26 -14106.005551 -12731.478802 -19318.118843   -212.175347                    
V 26  23073.010302   -802.808184 -16469.953697      -.132944                    
P 27 -19718.306717 -16134.059951   8827.480858    321.538421                    
V 27  -4946.007562  -9024.853429 -29353.297136       .039217                    
P 28  12064.146097 -23503.682801    310.769603     80.810441                    
V 28   2133.809695   1394.504261 -32270.249290       .032204                    
P 29 -25065.330476   5701.664836  -6540.765625    253.884569                    
V 29  -8509.456101  -2315.000594  30337.058313       .034483                    
P 30  -7008.370942  25546.559567  -2585.523477     57.325468                    
V 30  -3628.579258   1721.054715  31442.931325      -.074600                    
P 31   5297.446232  22796.145867  12550.497455    163.975810                    
V 31 -10364.802361 -11894.508709  26615.786833       .051941                    
P 32  12671.672903   8994.757091  21806.695722   -355.426448                    
V 32 -13524.346127  23485.127957  -1405.232273      -.060113                    
EOF
